[{"OBJECT_NAME":"WORLDVIEW-2 (WV-2)","OBJECT_ID":"2009-055A","EPOCH":"2026-03-09T22:27:15.689664","MEAN_MOTION":14.37910721,"ECCENTRICITY":0.00050548,"INCLINATION":98.4692,"RA_OF_ASC_NODE":143.7977,"ARG_OF_PERICENTER":144.7175,"MEAN_ANOMALY":215.4347,"EPHEMERIS_TYPE":0,"CLASSIFICATION_TYPE":"U","NORAD_CAT_ID":35946,"ELEMENT_SET_NO":999,"REV_AT_EPOCH":86138,"BSTAR":7.9928144e-5,"MEAN_MOTION_DOT":1.98e-6,"MEAN_MOTION_DDOT":0},{"OBJECT_NAME":"FENGYUN 1C DEB","OBJECT_ID":"1999-025AEX","EPOCH":"2026-03-09T04:28:30.307296","MEAN_MOTION":14.23366724,"ECCENTRICITY":0.00952256,"INCLINATION":98.4222,"RA_OF_ASC_NODE":323.4693,"ARG_OF_PERICENTER":242.8343,"MEAN_ANOMALY":270.2345,"EPHEMERIS_TYPE":0,"CLASSIFICATION_TYPE":"U","NORAD_CAT_ID":30436,"ELEMENT_SET_NO":999,"REV_AT_EPOCH":97666,"BSTAR":0.00222239,"MEAN_MOTION_DOT":5.242e-5,"MEAN_MOTION_DDOT":0}]
